OSCAR 7 (AO-7)          
1 07530U 74089B   19058.92774656 -.00000022  00000-0  14258-3 0  9990
2 07530 101.7294  27.7897 0011965 199.7680 164.7544 12.53636888 26406
UOSAT 2 (UO-11)         
1 14781U 84021B   19058.64648622  .00000053  00000-0  12632-4 0  9993
2 14781  97.6231  88.5466 0007672 333.8575  26.2251 14.83065916861303
LUSAT (LO-19)           
1 20442U 90005G   19058.78334942  .00000011  00000-0  20094-4 0  9990
2 20442  98.6379   1.0374 0012785 113.9960 246.2563 14.32918310520493
ITAMSAT (IO-26)         
1 22826U 93061D   19058.90972319  .00000009  00000-0  21230-4 0  9993
2 22826  98.8886  45.0747 0008163 316.0392  44.0139 14.30385067326063
RADIO ROSTO (RS-15)     
1 23439U 94085A   19058.84859360 -.00000043  00000-0 -28888-4 0  9990
2 23439  64.8167 295.3777 0148706 134.4628 300.7798 11.27567924995392
JAS-2 (FO-29)           
1 24278U 96046B   19058.63401933 -.00000028  00000-0  55659-5 0  9996
2 24278  98.5199 227.2022 0350652 167.9287 193.0535 13.53089510112537
TECHSAT 1B (GO-32)      
1 25397U 98043D   19058.78626392 -.00000017  00000-0  11646-4 0  9997
2 25397  98.6785   0.3389 0001735  39.2573 320.8731 14.23660810 71877
ISS (ZARYA)             
1 25544U 98067A   19058.87026715 -.00002476  00000-0 -31848-4 0  9998
2 25544  51.6431 184.7587 0003649  63.9507  16.2348 15.52740199158274
PCSAT (NO-44)           
1 26931U 01043C   19058.82595415 -.00000041  00000-0  15995-4 0  9990
2 26931  67.0506 289.7667 0005339 272.1708  87.8782 14.30533438909045
SAUDISAT 1C (SO-50)     
1 27607U 02058C   19058.53048898 -.00000026  00000-0  17227-4 0  9997
2 27607  64.5557  29.4496 0082208 277.6677  81.5096 14.75522886870633
CUTE-1 (CO-55)          
1 27844U 03031E   19058.70353285  .00000038  00000-0  36725-4 0  9996
2 27844  98.6868  68.5626 0009699 359.0577   1.0581 14.22161946812477
CUBESAT XI-IV (CO-57)   
1 27848U 03031J   19058.94566747  .00000032  00000-0  34388-4 0  9992
2 27848  98.6948  69.2754 0009796   9.5010 350.6351 14.21759371812378
MOZHAYETS 4 (RS-22)     
1 27939U 03042A   19058.92122905  .00000062  00000-0  19597-4 0  9995
2 27939  98.0202 197.0178 0014130  62.3040 297.9577 14.66756744824303
CUBESAT XI-V            
1 28895U 05043F   19058.82827698  .00000085  00000-0  25088-4 0  9997
2 28895  97.9399 205.4759 0016288 346.2447  13.8310 14.63633434711032
CUTE-1.7+APD II (CO-65) 
1 32785U 08021C   19058.88528723  .00000183  00000-0  25418-4 0  9998
2 32785  97.5485  63.8386 0011557 270.7296  89.2598 14.88255213587203
DELFI-C3 (DO-64)        
1 32789U 08021G   19058.91776789  .00000663  00000-0  48703-4 0  9998
2 32789  97.4795 111.8582 0013484 139.4959 220.7275 15.06677494590185
SEEDS II (CO-66)        
1 32791U 08021J   19058.55230395  .00000240  00000-0  29837-4 0  9997
2 32791  97.5304  69.3606 0011948 245.3057 114.6918 14.90741360587477
YUBILEINY (RS-30)       
1 32953U 08025A   19058.89858551  .00000020  00000-0  75656-4 0  9994
2 32953  82.5028 213.6441 0019308  14.3119 345.8500 12.43087786488540
KKS-1 (KISEKI)          
1 33499U 09002H   19058.92850722  .00000089  00000-0  21220-4 0  9995
2 33499  98.3548 254.0560 0008890 191.6676 168.4327 14.75409637542468
SWISSCUBE               
1 35932U 09051B   19058.90680945  .00000112  00000-0  36349-4 0  9994
2 35932  98.5733 221.7154 0008456 140.1223 220.0597 14.56247704500614
BEESAT-1                
1 35933U 09051C   19058.91673548  .00000101  00000-0  33880-4 0  9992
2 35933  98.5765 223.4266 0006485 150.0103 210.1466 14.56341585500684
ITUPSAT1                
1 35935U 09051E   19058.91073849  .00000057  00000-0  24157-4 0  9999
2 35935  98.5879 223.6652 0008808 149.1505 211.0210 14.55506461500490
XIWANG-1 (HOPE-1)       
1 36122U 09072B   19058.69283533 -.00000057  00000-0 -38733-4 0  9996
2 36122 100.0731  66.2945 0006785 239.6803 120.3629 13.16348141442271
JUGNU                   
1 37839U 11058B   19058.84184257  .00000304  00000-0  19879-4 0  9992
2 37839  19.9610 286.9840 0018924 184.9573 263.5513 14.12642504381451
SRMSAT                  
1 37841U 11058D   19058.93878748  .00000303  00000-0  21501-4 0  9994
2 37841  19.9730 340.8789 0011925  60.8842   0.7104 14.10625005380949
M-CUBED & EXP-1 PRIME   
1 37855U 11061F   19058.46376852  .00000722  00000-0  44263-4 0  9995
2 37855 101.7280 256.8866 0174402  46.4037 315.1499 15.05160379399574
STRAND-1                
1 39090U 13009E   19058.78767030  .00000009  00000-0  18298-4 0  9996
2 39090  98.4989 266.5298 0008036 257.3350 102.6937 14.35072252314467
SOMP                    
1 39134U 13015E   19058.69492353  .00001454  00000-0  76596-4 0  9995
2 39134  64.8642  19.9592 0020346 321.7382  38.2300 15.19845606323344
BEESAT-3                
1 39135U 13015F   19058.94938290  .00000811  00000-0  50415-4 0  9997
2 39135  64.8705  35.9108 0009903 282.2881  77.7136 15.17227376323056
BEESAT-2                
1 39136U 13015G   19058.94548778  .00001046  00000-0  63084-4 0  9993
2 39136  64.8700  39.4103 0010977 288.7364  71.2570 15.16663223322982
ZACUBE-1 (TSHEPISOSAT)  
1 39417U 13066B   19058.90752797  .00000212  00000-0  32922-4 0  9996
2 39417  97.5696  78.5965 0059880  38.4322 322.1133 14.81060217284649
GOMX-1                  
1 39430U 13066Q   19058.81229987  .00000089  00000-0  25522-4 0  9991
2 39430  97.7319  22.7617 0149846 243.7466 114.8276 14.59200912280435
CUBEBUG-2 (LO-74)       
1 39440U 13066AA  19058.83026413  .00000203  00000-0  35074-4 0  9994
2 39440  97.6008  63.8266 0081850  85.2629 275.7923 14.75797793282429
FUNCUBE-1 (AO-73)       
1 39444U 13066AE  19058.63118615  .00000252  00000-0  37351-4 0  9996
2 39444  97.5687  80.1669 0058897  33.7908 326.7037 14.81867346283486
UWE-3                   
1 39446U 13066AG  19058.55045076  .00000195  00000-0  32472-4 0  9994
2 39446  97.5840  70.4320 0071440  63.3594 297.4913 14.78332745282846
SPROUT                  
1 39770U 14029E   19058.82347486  .00000577  00000-0  70260-4 0  9995
2 39770  97.8786 162.9047 0010193  91.4621 268.7758 14.87190593258352
UNISAT-6                
1 40012U 14033C   19058.95374168  .00000143  00000-0  28681-4 0  9991
2 40012  97.7742 290.2229 0059804  94.9046 265.8994 14.73930873252376
DUCHIFAT-1              
1 40021U 14033M   19058.78091278  .00000347  00000-0  41351-4 0  9995
2 40021  97.9220 343.0326 0014267  58.8322 301.4292 14.90531415255025
QB50P1                  
1 40025U 14033R   19058.74549981  .00000198  00000-0  27106-4 0  9990
2 40025  97.9066 338.6117 0013835  66.9874 293.2800 14.88872277254301
NUDT-PHONESAT           
1 40900U 15049B   19058.77039752  .00001374  00000-0  62635-4 0  9996
2 40900  97.4403  69.2171 0012166 207.0252 240.0987 15.22307171190786
ZDPS 2A                 
1 40901U 15049C   19058.84626453  .00000412  00000-0  23899-4 0  9996
2 40901  97.4609  66.2841 0012133 223.5763 257.3102 15.17519383190425
ZDPS 2B                 
1 40902U 15049D   19058.85570782  .00000541  00000-0  30495-4 0  9994
2 40902  97.4530  63.9381 0012369 220.0667 259.5123 15.17296522190400
XW-2A                   
1 40903U 15049E   19058.78435619  .00001194  00000-0  30558-4 0  9991
2 40903  97.3535 100.8523 0013634 179.2319 271.2759 15.41400151193163
KAITUO 1A               
1 40904U 15049F   19058.80013023  .00000470  00000-0  28456-4 0  9996
2 40904  97.4658  62.7256 0013249 227.6805 256.8608 15.15256121190201
2015-049G               
1 40905U 15049G   19058.86110101  .00000521  00000-0  32066-4 0  9997
2 40905  97.4681  60.4773 0014414 220.9460 223.7231 15.14191989190108
XW-2C                   
1 40906U 15049H   19058.82187794  .00000489  00000-0  29288-4 0  9991
2 40906  97.4663  62.7586 0013535 218.7159 263.8593 15.15520134190205
XW-2D                   
1 40907U 15049J   19058.87181608  .00000624  00000-0  36202-4 0  9990
2 40907  97.4641  62.4864 0012922 215.1415 229.3751 15.15696859190226
LILACSAT-2              
1 40908U 15049K   19058.92660885  .00000503  00000-0  31503-4 0  9991
2 40908  97.4765  61.5538 0014593 221.5411 169.5652 15.13711080190053
XW-2F                   
1 40910U 15049M   19058.86997764  .00000841  00000-0  45829-4 0  9997
2 40910  97.4621  64.2635 0013787 208.6713 238.6470 15.17050688190218
XW-2B                   
1 40911U 15049N   19058.95574377  .00000253  00000-0  16762-4 0  9990
2 40911  97.4666  63.1890 0012900 215.6692 175.3475 15.15628845190136
KAITUO 1B               
1 40912U 15049P   19058.87027762  .00000861  00000-0  43923-4 0  9997
2 40912  97.4514  67.6743 0014533 192.2719 252.8704 15.19330291190482
TIANWANG 1C (TW-1C)     
1 40926U 15051B   19058.91506944  .00007205  00000-0  11573-3 0  9998
2 40926  97.1527 105.3244 0010485  70.1333 285.4983 15.53273663192943
TIANWANG 1A (TW-1A)     
1 40928U 15051D   19058.80149519  .00002135  00000-0  55306-4 0  9999
2 40928  97.1590  92.5299 0013240 111.7227 335.3866 15.40052022192101
LAPAN-A2                
1 40931U 15052B   19056.68665056  .00000721  00000-0  11499-4 0  9991
2 40931   5.9965 142.6125 0012437 354.2232   5.7770 14.76598093184531
E-ST@R-II               
1 41459U 16025D   19058.85925546  .00000498  00000-0  30038-4 0  9993
2 41459  98.1068 139.8098 0168845  11.4004 349.0921 15.05113743155871
AAUSAT 4                
1 41460U 16025E   19058.76834362  .00001204  00000-0  64934-4 0  9998
2 41460  98.1012 140.6942 0159309   5.1561 355.1256 15.06842265155961
NUSAT-1 (FRESCO)        
1 41557U 16033B   19058.90964499  .00001169  00000-0  46979-4 0  9994
2 41557  97.4215 147.0707 0013138 335.5147  24.5467 15.26902235153183
BEESAT-4                
1 41619U 16040W   19058.67308352  .00001205  00000-0  54427-4 0  9993
2 41619  97.3822 122.9046 0012821  58.9726 301.2768 15.22801448136966
CAS-2T & KS-1Q          
1 41847U 16066G   19058.69494681  .00000010  00000-0  12366-4 0  9996
2 41847  98.7220  97.5672 0365688 204.9468 153.3653 14.37959524121042
NAYIF-1 (EO-88)         
1 42017U 17008BX  19058.70107383  .00001285  00000-0  54093-4 0  9993
2 42017  97.4164 126.8902 0006024 185.5651 174.5521 15.25174097113009
LILACSAT-1 (LO-90)      
1 42725U 98067ME  19058.60087160  .00151414  20407-4  34356-3 0  9998
2 42725  51.6304 116.9920 0004835  39.1416 114.5804 15.97201245100878
MAX VALIER SAT          
1 42778U 17036P   19058.80650606  .00000772  00000-0  37052-4 0  9996
2 42778  97.3697 118.8411 0010909 250.4517 109.5542 15.21785409 93378
RADFXSAT (FOX-1B)       
1 43017U 17073E   19058.74108825  .00000339  00000-0  31829-4 0  9993
2 43017  97.7216 344.4590 0259191 159.3824 201.8082 14.78399228 68869
FOX-1D (AO-92)          
1 43137U 18004AC  19058.94633769  .00000925  00000-0  42104-4 0  9992
2 43137  97.5009 126.9392 0007786 287.8023  72.2363 15.23217282 62644
ES'HAIL 2               
1 43700U 18090A   19058.90770464  .00000126  00000-0  00000-0 0  9991
2 43700   0.0416 312.9312 0001505  67.5262 129.5761  1.00274478   944
FOX-1CLIFF (AO-95)      
1 43770U 18099N   19058.91138149 -.00000119  00000-0 -56012-5 0  9999
2 43770  97.7567 132.1414 0014233 348.9453  11.1453 14.94685142 12876
ITASAT 1                
1 43786U 18099AE  19058.88915013  .00000442  00000-0  45551-4 0  9997
2 43786  97.7583 132.1879 0014641 343.5434  16.5309 14.95069054 12877
JY1SAT (JO-97)          
1 43803U 18099AX  19058.94988702  .00000637  00000-0  63163-4 0  9994
2 43803  97.7540 132.2105 0014586 344.1407  15.9355 14.95182390 12871
